{"type": "FeatureCollection", "features": [ {"type": "Feature", "properties": {"norad_id": 40701, "name": "GAOFEN-8", "group": "resource", "lat": -8.707342364589236, "lon": -2.935718500504189, "alt_km": 453.8533731596008, "timestamp": "2025-12-25T11:37:44.078921+00:00", "meta": {"OBJECT_NAME": "GAOFEN-8", "OBJECT_ID": "2015-030A", "EPOCH": "2025-12-25T04:34:15.451968", "MEAN_MOTION": 15.38990286, "ECCENTRICITY": 0.0011457, "INCLINATION": 97.6901, "RA_OF_ASC_NODE": 177.9416, "ARG_OF_PERICENTER": 94.9287, "MEAN_ANOMALY": 265.3266, "EPHEMERIS_TYPE": 0, "CLASSIFICATION_TYPE": "U", "NORAD_CAT_ID": 40701, "ELEMENT_SET_NO": 999, "REV_AT_EPOCH": 58462, "BSTAR": 0.0007492, "MEAN_MOTION_DOT": 0.0002897, "MEAN_MOTION_DDOT": 0}, "tle": {"line1": "1 40701U 15030A   25359.19045662  .00028970  00000+0  74920-3 0  9998", "line2": "2 40701  97.6901 177.9416 0011457  94.9287 265.3266 15.38990286584624"}}, "geometry": {"type": "Point", "coordinates": [-2.935718500504189, -8.707342364589236]}}, {"type": "Feature", "properties": {"norad_id": 40718, "name": "CARBONITE 1 (CBNT-1)", "group": "resource", "lat": 73.08482187075951, "lon": 153.77392073739324, "alt_km": 608.9907539600608, "timestamp": "2025-12-25T11:37:44.078931+00:00", "meta": {"OBJECT_NAME": "CARBONITE 1 (CBNT-1)", "OBJECT_ID": "2015-032D", "EPOCH": "2025-12-25T04:48:50.707296", "MEAN_MOTION": 14.82799582, "ECCENTRICITY": 0.0015347, "INCLINATION": 97.6404, "RA_OF_ASC_NODE": 179.6961, "ARG_OF_PERICENTER": 141.1048, "MEAN_ANOMALY": 219.1273, "EPHEMERIS_TYPE": 0, "CLASSIFICATION_TYPE": "U", "NORAD_CAT_ID": 40718, "ELEMENT_SET_NO": 999, "REV_AT_EPOCH": 56355, "BSTAR": 0.00025418, "MEAN_MOTION_DOT": 2.009e-05, "MEAN_MOTION_DDOT": 0}, "tle": {"line1": "1 40718U 15032D   25359.20058689  .00002009  00000+0  25418-3 0  9996", "line2": "2 40718  97.6404 179.6961 0015347 141.1048 219.1273 14.82799582563554"}}, "geometry": {"type": "Point", "coordinates": [153.77392073739324, 73.08482187075951]}}, {"type": "Feature", "properties": {"norad_id": 40878, "name": "YAOGAN-27", "group": "resource", "lat": 55.400010583610204, "lon": -26.44773172705621, "alt_km": 1199.832612564106, "timestamp": "2025-12-25T11:37:44.078941+00:00", "meta": {"OBJECT_NAME": "YAOGAN-27", "OBJECT_ID": "2015-040A", "EPOCH": "2025-12-25T04:02:36.040416", "MEAN_MOTION": 13.16062735, "ECCENTRICITY": 0.0007552, "INCLINATION": 100.102, "RA_OF_ASC_NODE": 348.2263, "ARG_OF_PERICENTER": 255.7588, "MEAN_ANOMALY": 104.2687, "EPHEMERIS_TYPE": 0, "CLASSIFICATION_TYPE": "U", "NORAD_CAT_ID": 40878, "ELEMENT_SET_NO": 999, "REV_AT_EPOCH": 49477, "BSTAR": 0.0010373, "MEAN_MOTION_DOT": 3.52e-06, "MEAN_MOTION_DDOT": 0}, "tle": {"line1": "1 40878U 15040A   25359.16847269  .00000352  00000+0  10373-2 0  9999", "line2": "2 40878 100.1020 348.2263 0007552 255.7588 104.2687 13.16062735494773"}}, "geometry": {"type": "Point", "coordinates": [-26.44773172705621, 55.400010583610204]}}, {"type": "Feature", "properties": {"norad_id": 40894, "name": "GAOFEN-9 01", "group": "resource", "lat": -19.489517822808615, "lon": 40.616263510385785, "alt_km": 608.0641845670625, "timestamp": "2025-12-25T11:37:44.078951+00:00", "meta": {"OBJECT_NAME": "GAOFEN-9 01", "OBJECT_ID": "2015-047A", "EPOCH": "2025-12-25T05:14:14.098272", "MEAN_MOTION": 14.82451932, "ECCENTRICITY": 0.0027375, "INCLINATION": 97.6527, "RA_OF_ASC_NODE": 37.634, "ARG_OF_PERICENTER": 353.8995, "MEAN_ANOMALY": 6.1882, "EPHEMERIS_TYPE": 0, "CLASSIFICATION_TYPE": "U", "NORAD_CAT_ID": 40894, "ELEMENT_SET_NO": 999, "REV_AT_EPOCH": 55441, "BSTAR": 0.00014751, "MEAN_MOTION_DOT": 1.139e-05, "MEAN_MOTION_DDOT": 0}, "tle": {"line1": "1 40894U 15047A   25359.21821873  .00001139  00000+0  14751-3 0  9992", "line2": "2 40894  97.6527  37.6340 0027375 353.8995   6.1882 14.82451932554415"}}, "geometry": {"type": "Point", "coordinates": [40.616263510385785, -19.489517822808615]}}, {"type": "Feature", "properties": {"norad_id": 41026, "name": "YAOGAN-28", "group": "resource", "lat": -74.67260494839333, "lon": -70.89037981414572, "alt_km": 508.066590996792, "timestamp": "2025-12-25T11:37:44.078961+00:00", "meta": {"OBJECT_NAME": "YAOGAN-28", "OBJECT_ID": "2015-064A", "EPOCH": "2025-12-25T04:12:25.413696", "MEAN_MOTION": 15.24546991, "ECCENTRICITY": 0.0012667, "INCLINATION": 97.2817, "RA_OF_ASC_NODE": 136.6183, "ARG_OF_PERICENTER": 86.6518, "MEAN_ANOMALY": 273.6169, "EPHEMERIS_TYPE": 0, "CLASSIFICATION_TYPE": "U", "NORAD_CAT_ID": 41026, "ELEMENT_SET_NO": 999, "REV_AT_EPOCH": 56414, "BSTAR": 0.00034428, "MEAN_MOTION_DOT": 8.427e-05, "MEAN_MOTION_DDOT": 0}, "tle": {"line1": "1 41026U 15064A   25359.17529414  .00008427  00000+0  34428-3 0  9990", "line2": "2 41026  97.2817 136.6183 0012667  86.6518 273.6169 15.24546991564143"}}, "geometry": {"type": "Point", "coordinates": [-70.89037981414572, -74.67260494839333]}}, {"type": "Feature", "properties": {"norad_id": 41038, "name": "YAOGAN-29", "group": "resource", "lat": -68.0379884562016, "lon": -177.7700843397803, "alt_km": 627.4199322858658, "timestamp": "2025-12-25T11:37:44.078971+00:00", "meta": {"OBJECT_NAME": "YAOGAN-29", "OBJECT_ID": "2015-069A", "EPOCH": "2025-12-25T05:38:56.755104", "MEAN_MOTION": 14.82897096, "ECCENTRICITY": 9.21e-05, "INCLINATION": 98.0205, "RA_OF_ASC_NODE": 22.4463, "ARG_OF_PERICENTER": 163.2733, "MEAN_ANOMALY": 196.851, "EPHEMERIS_TYPE": 0, "CLASSIFICATION_TYPE": "U", "NORAD_CAT_ID": 41038, "ELEMENT_SET_NO": 999, "REV_AT_EPOCH": 54484, "BSTAR": 0.00013059, "MEAN_MOTION_DOT": 1.004e-05, "MEAN_MOTION_DDOT": 0}, "tle": {"line1": "1 41038U 15069A   25359.23537911  .00001004  00000+0  13059-3 0  9997", "line2": "2 41038  98.0205  22.4463 0000921 163.2733 196.8510 14.82897096544849"}}, "geometry": {"type": "Point", "coordinates": [-177.7700843397803, -68.0379884562016]}}, {"type": "Feature", "properties": {"norad_id": 41167, "name": "KENT RIDGE 1", "group": "resource", "lat": -6.779370252202318, "lon": 90.16928001173166, "alt_km": 493.25447746415466, "timestamp": "2025-12-25T11:37:44.078981+00:00", "meta": {"OBJECT_NAME": "KENT RIDGE 1", "OBJECT_ID": "2015-077B", "EPOCH": "2025-12-24T23:09:45.505728", "MEAN_MOTION": 15.21725755, "ECCENTRICITY": 0.0008548, "INCLINATION": 14.9791, "RA_OF_ASC_NODE": 120.4179, "ARG_OF_PERICENTER": 303.3992, "MEAN_ANOMALY": 56.5512, "EPHEMERIS_TYPE": 0, "CLASSIFICATION_TYPE": "U", "NORAD_CAT_ID": 41167, "ELEMENT_SET_NO": 999, "REV_AT_EPOCH": 55450, "BSTAR": 0.00017266, "MEAN_MOTION_DOT": 4.787e-05, "MEAN_MOTION_DDOT": 0}, "tle": {"line1": "1 41167U 15077B   25358.96511002  .00004787  00000+0  17266-3 0  9996", "line2": "2 41167  14.9791 120.4179 0008548 303.3992  56.5512 15.21725755554503"}}, "geometry": {"type": "Point", "coordinates": [90.16928001173166, -6.779370252202318]}}, {"type": "Feature", "properties": {"norad_id": 41194, "name": "GAOFEN-4", "group": "resource", "lat": -0.1845370113076688, "lon": 14.370808594256612, "alt_km": 35797.850065776605, "timestamp": "2025-12-25T11:37:44.078994+00:00", "meta": {"OBJECT_NAME": "GAOFEN-4", "OBJECT_ID": "2015-083A", "EPOCH": "2025-12-24T23:52:24.163968", "MEAN_MOTION": 1.00270172, "ECCENTRICITY": 0.0002829, "INCLINATION": 0.1999, "RA_OF_ASC_NODE": 81.8667, "ARG_OF_PERICENTER": 93.4029, "MEAN_ANOMALY": 22.3054, "EPHEMERIS_TYPE": 0, "CLASSIFICATION_TYPE": "U", "NORAD_CAT_ID": 41194, "ELEMENT_SET_NO": 999, "REV_AT_EPOCH": 3678, "BSTAR": 0, "MEAN_MOTION_DOT": -3.14e-06, "MEAN_MOTION_DDOT": 0}, "tle": {"line1": "1 41194U 15083A   25358.99472412 -.00000314  00000+0  00000+0 0  9994", "line2": "2 41194   0.1999  81.8667 0002829  93.4029  22.3054  1.00270172 36783"}}, "geometry": {"type": "Point", "coordinates": [14.370808594256612, -0.1845370113076688]}}, {"type": "Feature", "properties": {"norad_id": 41240, "name": "JASON-3", "group": "resource", "lat": -14.968016189927335, "lon": 124.20275496832568, "alt_km": 1312.9057358886148, "timestamp": "2025-12-25T11:37:44.079005+00:00", "meta": {"OBJECT_NAME": "JASON-3", "OBJECT_ID": "2016-002A", "EPOCH": "2025-12-25T02:23:36.697920", "MEAN_MOTION": 12.87627046, "ECCENTRICITY": 0.0007297, "INCLINATION": 66.0405, "RA_OF_ASC_NODE": 131.8386, "ARG_OF_PERICENTER": 271.5389, "MEAN_ANOMALY": 88.4793, "EPHEMERIS_TYPE": 0, "CLASSIFICATION_TYPE": "U", "NORAD_CAT_ID": 41240, "ELEMENT_SET_NO": 999, "REV_AT_EPOCH": 46483, "BSTAR": 0.00011027, "MEAN_MOTION_DOT": -3.4e-07, "MEAN_MOTION_DDOT": 0}, "tle": {"line1": "1 41240U 16002A   25359.09973030 -.00000034  00000+0  11027-3 0  9996", "line2": "2 41240  66.0405 131.8386 0007297 271.5389  88.4793 12.87627046464831"}}, "geometry": {"type": "Point", "coordinates": [124.20275496832568, -14.968016189927335]}}, {"type": "Feature", "properties": {"norad_id": 41335, "name": "SENTINEL-3A", "group": "resource", "lat": -73.891099534114, "lon": -147.4053984482821, "alt_km": 810.5506915239384, "timestamp": "2025-12-25T11:37:44.079015+00:00", "meta": {"OBJECT_NAME": "SENTINEL-3A", "OBJECT_ID": "2016-011A", "EPOCH": "2025-12-25T03:41:55.242240", "MEAN_MOTION": 14.26735366, "ECCENTRICITY": 8.83e-05, "INCLINATION": 98.6297, "RA_OF_ASC_NODE": 63.9934, "ARG_OF_PERICENTER": 97.2384, "MEAN_ANOMALY": 262.8896, "EPHEMERIS_TYPE": 0, "CLASSIFICATION_TYPE": "U", "NORAD_CAT_ID": 41335, "ELEMENT_SET_NO": 999, "REV_AT_EPOCH": 51324, "BSTAR": 7.3648e-05, "MEAN_MOTION_DOT": 1.35e-06, "MEAN_MOTION_DDOT": 0}, "tle": {"line1": "1 41335U 16011A   25359.15411160  .00000135  00000+0  73648-4 0  9998", "line2": "2 41335  98.6297  63.9934 0000883  97.2384 262.8896 14.26735366513244"}}, "geometry": {"type": "Point", "coordinates": [-147.4053984482821, -73.891099534114]}}]}